[{"OBJECT_NAME":"ONEWEB-0429","OBJECT_ID":"2021-132AH","EPOCH":"2026-06-04T01:27:35.936640","MEAN_MOTION":13.18685063,"ECCENTRICITY":0.0001733,"INCLINATION":87.9154,"RA_OF_ASC_NODE":338.0716,"ARG_OF_PERICENTER":94.2239,"MEAN_ANOMALY":265.9091,"EPHEMERIS_TYPE":0,"CLASSIFICATION_TYPE":"U","NORAD_CAT_ID":50500,"ELEMENT_SET_NO":999,"REV_AT_EPOCH":21985,"BSTAR":0.00016491,"MEAN_MOTION_DOT":7.8e-07,"MEAN_MOTION_DDOT":0.0},{"OBJECT_NAME":"ONEWEB-0430","OBJECT_ID":"2021-132AJ","EPOCH":"2026-06-04T01:10:36.161760","MEAN_MOTION":13.18685613,"ECCENTRICITY":0.0001604,"INCLINATION":87.9158,"RA_OF_ASC_NODE":338.0725,"ARG_OF_PERICENTER":96.4261,"MEAN_ANOMALY":263.7053,"EPHEMERIS_TYPE":0,"CLASSIFICATION_TYPE":"U","NORAD_CAT_ID":50501,"ELEMENT_SET_NO":999,"REV_AT_EPOCH":21989,"BSTAR":0.00022876,"MEAN_MOTION_DOT":1.03e-06,"MEAN_MOTION_DDOT":0.0},{"OBJECT_NAME":"ONEWEB-0432","OBJECT_ID":"2021-132AK","EPOCH":"2026-06-04T00:08:37.538592","MEAN_MOTION":13.1868313,"ECCENTRICITY":0.0001575,"INCLINATION":87.9181,"RA_OF_ASC_NODE":338.0556,"ARG_OF_PERICENTER":101.8009,"MEAN_ANOMALY":258.33,"EPHEMERIS_TYPE":0,"CLASSIFICATION_TYPE":"U","NORAD_CAT_ID":50502,"ELEMENT_SET_NO":999,"REV_AT_EPOCH":21984,"BSTAR":0.00018223,"MEAN_MOTION_DOT":8.5e-07,"MEAN_MOTION_DDOT":0.0},{"OBJECT_NAME":"ONEWEB-0440","OBJECT_ID":"2021-132AL","EPOCH":"2026-06-04T01:39:43.827264","MEAN_MOTION":13.18686994,"ECCENTRICITY":0.0001578,"INCLINATION":87.9164,"RA_OF_ASC_NODE":338.0634,"ARG_OF_PERICENTER":81.773,"MEAN_ANOMALY":278.3581,"EPHEMERIS_TYPE":0,"CLASSIFICATION_TYPE":"U","NORAD_CAT_ID":50503,"ELEMENT_SET_NO":999,"REV_AT_EPOCH":21984,"BSTAR":-0.00029138,"MEAN_MOTION_DOT":-1.02e-06,"MEAN_MOTION_DDOT":0.0},{"OBJECT_NAME":"ONEWEB-0450","OBJECT_ID":"2021-132AM","EPOCH":"2026-06-04T01:30:14.221440","MEAN_MOTION":13.1868769,"ECCENTRICITY":0.0001621,"INCLINATION":87.9153,"RA_OF_ASC_NODE":338.0713,"ARG_OF_PERICENTER":93.474,"MEAN_ANOMALY":266.6577,"EPHEMERIS_TYPE":0,"CLASSIFICATION_TYPE":"U","NORAD_CAT_ID":50504,"ELEMENT_SET_NO":999,"REV_AT_EPOCH":21987,"BSTAR":0.00015727,"MEAN_MOTION_DOT":7.5e-07,"MEAN_MOTION_DDOT":0.0},{"OBJECT_NAME":"ONEWEB-0410","OBJECT_ID":"2022-012A","EPOCH":"2026-06-04T01:55:39.064800","MEAN_MOTION":13.17647396,"ECCENTRICITY":0.0003189,"INCLINATION":87.9153,"RA_OF_ASC_NODE":8.4636,"ARG_OF_PERICENTER":85.9991,"MEAN_ANOMALY":274.1505,"EPHEMERIS_TYPE":0,"CLASSIFICATION_TYPE":"U","NORAD_CAT_ID":51622,"ELEMENT_SET_NO":999,"REV_AT_EPOCH":21197,"BSTAR":-2.3418000000000002e-05,"MEAN_MOTION_DOT":4e-08,"MEAN_MOTION_DDOT":0.0},{"OBJECT_NAME":"ONEWEB-0411","OBJECT_ID":"2022-012B","EPOCH":"2026-06-04T15:26:01.497696","MEAN_MOTION":13.10377973,"ECCENTRICITY":0.0001398,"INCLINATION":87.8849,"RA_OF_ASC_NODE":38.7646,"ARG_OF_PERICENTER":92.1017,"MEAN_ANOMALY":268.027,"EPHEMERIS_TYPE":0,"CLASSIFICATION_TYPE":"U","NORAD_CAT_ID":51623,"ELEMENT_SET_NO":999,"REV_AT_EPOCH":20764,"BSTAR":-0.00017604,"MEAN_MOTION_DOT":-4.9e-07,"MEAN_MOTION_DDOT":0.0},{"OBJECT_NAME":"ONEWEB-0415","OBJECT_ID":"2022-012C","EPOCH":"2026-06-04T15:21:14.868288","MEAN_MOTION":13.1037772,"ECCENTRICITY":0.0001692,"INCLINATION":87.8847,"RA_OF_ASC_NODE":38.7652,"ARG_OF_PERICENTER":91.8421,"MEAN_ANOMALY":268.29,"EPHEMERIS_TYPE":0,"CLASSIFICATION_TYPE":"U","NORAD_CAT_ID":51624,"ELEMENT_SET_NO":999,"REV_AT_EPOCH":20764,"BSTAR":-0.00063921,"MEAN_MOTION_DOT":-2.1e-06,"MEAN_MOTION_DDOT":0.0},{"OBJECT_NAME":"ONEWEB-0416","OBJECT_ID":"2022-012D","EPOCH":"2026-06-04T15:38:01.772160","MEAN_MOTION":13.10388209,"ECCENTRICITY":0.0001941,"INCLINATION":87.8846,"RA_OF_ASC_NODE":38.7804,"ARG_OF_PERICENTER":96.5781,"MEAN_ANOMALY":263.5568,"EPHEMERIS_TYPE":0,"CLASSIFICATION_TYPE":"U","NORAD_CAT_ID":51625,"ELEMENT_SET_NO":999,"REV_AT_EPOCH":20768,"BSTAR":0.0011335000000000002,"MEAN_MOTION_DOT":4.08e-06,"MEAN_MOTION_DDOT":0.0},{"OBJECT_NAME":"ONEWEB-0422","OBJECT_ID":"2022-012E","EPOCH":"2026-06-04T02:10:14.672640","MEAN_MOTION":13.17650008,"ECCENTRICITY":0.0001404,"INCLINATION":87.9147,"RA_OF_ASC_NODE":8.4625,"ARG_OF_PERICENTER":66.7619,"MEAN_ANOMALY":293.366,"EPHEMERIS_TYPE":0,"CLASSIFICATION_TYPE":"U","NORAD_CAT_ID":51626,"ELEMENT_SET_NO":999,"REV_AT_EPOCH":21208,"BSTAR":9.1147e-05,"MEAN_MOTION_DOT":4.8e-07,"MEAN_MOTION_DDOT":0.0},{"OBJECT_NAME":"ONEWEB-0423","OBJECT_ID":"2022-012F","EPOCH":"2026-06-04T02:00:32.367744","MEAN_MOTION":13.17649252,"ECCENTRICITY":0.0001943,"INCLINATION":87.9144,"RA_OF_ASC_NODE":8.4705,"ARG_OF_PERICENTER":80.5755,"MEAN_ANOMALY":279.5596,"EPHEMERIS_TYPE":0,"CLASSIFICATION_TYPE":"U","NORAD_CAT_ID":51627,"ELEMENT_SET_NO":999,"REV_AT_EPOCH":21197,"BSTAR":5.3142999999999996e-05,"MEAN_MOTION_DOT":3.4e-07,"MEAN_MOTION_DDOT":0.0},{"OBJECT_NAME":"ONEWEB-0425","OBJECT_ID":"2022-012G","EPOCH":"2026-06-04T15:52:21.994752","MEAN_MOTION":13.10374955,"ECCENTRICITY":0.0002181,"INCLINATION":87.8841,"RA_OF_ASC_NODE":38.7616,"ARG_OF_PERICENTER":84.4921,"MEAN_ANOMALY":275.6455,"EPHEMERIS_TYPE":0,"CLASSIFICATION_TYPE":"U","NORAD_CAT_ID":51628,"ELEMENT_SET_NO":999,"REV_AT_EPOCH":20768,"BSTAR":0.0019089,"MEAN_MOTION_DOT":6.79e-06,"MEAN_MOTION_DDOT":0.0},{"OBJECT_NAME":"ONEWEB-0428","OBJECT_ID":"2022-012H","EPOCH":"2026-06-04T15:23:38.154048","MEAN_MOTION":13.10377827,"ECCENTRICITY":0.0001726,"INCLINATION":87.8861,"RA_OF_ASC_NODE":38.775,"ARG_OF_PERICENTER":80.4385,"MEAN_ANOMALY":279.6937,"EPHEMERIS_TYPE":0,"CLASSIFICATION_TYPE":"U","NORAD_CAT_ID":51629,"ELEMENT_SET_NO":999,"REV_AT_EPOCH":20764,"BSTAR":-0.00023417,"MEAN_MOTION_DOT":-6.9e-07,"MEAN_MOTION_DDOT":0.0},{"OBJECT_NAME":"ONEWEB-0431","OBJECT_ID":"2022-012J","EPOCH":"2026-06-04T05:30:38.290176","MEAN_MOTION":13.10370123,"ECCENTRICITY":0.0001267,"INCLINATION":87.8841,"RA_OF_ASC_NODE":38.847,"ARG_OF_PERICENTER":90.4606,"MEAN_ANOMALY":269.6667,"EPHEMERIS_TYPE":0,"CLASSIFICATION_TYPE":"U","NORAD_CAT_ID":51630,"ELEMENT_SET_NO":999,"REV_AT_EPOCH":20764,"BSTAR":-0.0008985,"MEAN_MOTION_DOT":-3.01e-06,"MEAN_MOTION_DDOT":0.0},{"OBJECT_NAME":"ONEWEB-0434","OBJECT_ID":"2022-012K","EPOCH":"2026-06-04T15:57:19.793088","MEAN_MOTION":13.10374149,"ECCENTRICITY":0.0002472,"INCLINATION":87.8843,"RA_OF_ASC_NODE":38.7856,"ARG_OF_PERICENTER":80.8376,"MEAN_ANOMALY":279.3031,"EPHEMERIS_TYPE":0,"CLASSIFICATION_TYPE":"U","NORAD_CAT_ID":51631,"ELEMENT_SET_NO":999,"REV_AT_EPOCH":20768,"BSTAR":0.001919,"MEAN_MOTION_DOT":6.83e-06,"MEAN_MOTION_DDOT":0.0},{"OBJECT_NAME":"ONEWEB-0435","OBJECT_ID":"2022-012L","EPOCH":"2026-06-04T16:09:01.437120","MEAN_MOTION":13.10396385,"ECCENTRICITY":0.0001459,"INCLINATION":87.8845,"RA_OF_ASC_NODE":38.772,"ARG_OF_PERICENTER":72.8481,"MEAN_ANOMALY":287.2806,"EPHEMERIS_TYPE":0,"CLASSIFICATION_TYPE":"U","NORAD_CAT_ID":51632,"ELEMENT_SET_NO":999,"REV_AT_EPOCH":20767,"BSTAR":0.009073,"MEAN_MOTION_DOT":3.182e-05,"MEAN_MOTION_DDOT":0.0},{"OBJECT_NAME":"ONEWEB-0436","OBJECT_ID":"2022-012M","EPOCH":"2026-06-04T03:37:42.785760","MEAN_MOTION":13.17650175,"ECCENTRICITY":0.000162,"INCLINATION":87.9153,"RA_OF_ASC_NODE":8.4381,"ARG_OF_PERICENTER":84.8415,"MEAN_ANOMALY":275.2901,"EPHEMERIS_TYPE":0,"CLASSIFICATION_TYPE":"U","NORAD_CAT_ID":51633,"ELEMENT_SET_NO":999,"REV_AT_EPOCH":21196,"BSTAR":3.03e-05,"MEAN_MOTION_DOT":2.5e-07,"MEAN_MOTION_DDOT":0.0}]